[{"OBJECT_NAME":"BUFENG 1B","OBJECT_ID":"2019-032B","EPOCH":"2026-03-09T19:57:27.457920","MEAN_MOTION":15.25619535,"ECCENTRICITY":0.00242037,"INCLINATION":44.9701,"RA_OF_ASC_NODE":192.0248,"ARG_OF_PERICENTER":123.8847,"MEAN_ANOMALY":236.4342,"EPHEMERIS_TYPE":0,"CLASSIFICATION_TYPE":"U","NORAD_CAT_ID":44311,"ELEMENT_SET_NO":999,"REV_AT_EPOCH":37256,"BSTAR":0.00059375374,"MEAN_MOTION_DOT":0.00015236,"MEAN_MOTION_DDOT":0},{"OBJECT_NAME":"STARLINK-31705","OBJECT_ID":"2024-062J","EPOCH":"2026-03-09T21:47:54.701664","MEAN_MOTION":15.3019285,"ECCENTRICITY":0.00018979,"INCLINATION":53.1595,"RA_OF_ASC_NODE":254.7329,"ARG_OF_PERICENTER":107.0611,"MEAN_ANOMALY":253.0598,"EPHEMERIS_TYPE":0,"CLASSIFICATION_TYPE":"U","NORAD_CAT_ID":59382,"ELEMENT_SET_NO":999,"REV_AT_EPOCH":10966,"BSTAR":-7.73978e-6,"MEAN_MOTION_DOT":-5.89e-6,"MEAN_MOTION_DDOT":0}]
